{"type": "FeatureCollection", "features": [ {"type": "Feature", "properties": {"norad_id": 33980, "name": "COSMOS 2251 DEB", "group": "cosmos-2251-debris", "lat": -70.47919023278142, "lon": 9.779554564074571, "alt_km": 698.2264455230879, "timestamp": "2025-12-10T11:33:53.777262+00:00", "meta": {"OBJECT_NAME": "COSMOS 2251 DEB", "OBJECT_ID": "1993-036FP", "EPOCH": "2025-12-09T16:52:58.778112", "MEAN_MOTION": 14.58620527, "ECCENTRICITY": 0.0028862, "INCLINATION": 74.0215, "RA_OF_ASC_NODE": 65.1826, "ARG_OF_PERICENTER": 210.8804, "MEAN_ANOMALY": 304.3631, "EPHEMERIS_TYPE": 0, "CLASSIFICATION_TYPE": "U", "NORAD_CAT_ID": 33980, "ELEMENT_SET_NO": 999, "REV_AT_EPOCH": 88750, "BSTAR": 0.0012385, "MEAN_MOTION_DOT": 5.775e-05, "MEAN_MOTION_DDOT": 0}, "tle": {"line1": "1 33980U 93036FP  25343.70345808  .00005775  00000+0  12385-2 0  9990", "line2": "2 33980  74.0215  65.1826 0028862 210.8804 304.3631 14.58620527887509"}}, "geometry": {"type": "Point", "coordinates": [9.779554564074571, -70.47919023278142]}}, {"type": "Feature", "properties": {"norad_id": 33982, "name": "COSMOS 2251 DEB", "group": "cosmos-2251-debris", "lat": 52.90477622982951, "lon": 162.04698169579677, "alt_km": 672.6804871881859, "timestamp": "2025-12-10T11:33:53.777272+00:00", "meta": {"OBJECT_NAME": "COSMOS 2251 DEB", "OBJECT_ID": "1993-036FR", "EPOCH": "2025-12-10T03:02:24.402048", "MEAN_MOTION": 14.60195088, "ECCENTRICITY": 0.0075004, "INCLINATION": 74.0709, "RA_OF_ASC_NODE": 4.914, "ARG_OF_PERICENTER": 50.1732, "MEAN_ANOMALY": 6.4723, "EPHEMERIS_TYPE": 0, "CLASSIFICATION_TYPE": "U", "NORAD_CAT_ID": 33982, "ELEMENT_SET_NO": 999, "REV_AT_EPOCH": 89121, "BSTAR": 0.00050525, "MEAN_MOTION_DOT": 2.503e-05, "MEAN_MOTION_DDOT": 0}, "tle": {"line1": "1 33982U 93036FR  25344.12667132  .00002503  00000+0  50525-3 0  9991", "line2": "2 33982  74.0709   4.9140 0075004  50.1732   6.4723 14.60195088891211"}}, "geometry": {"type": "Point", "coordinates": [162.04698169579677, 52.90477622982951]}}, {"type": "Feature", "properties": {"norad_id": 33983, "name": "COSMOS 2251 DEB", "group": "cosmos-2251-debris", "lat": 45.31884011253572, "lon": -45.52350900792897, "alt_km": 727.3127215543991, "timestamp": "2025-12-10T11:33:53.777282+00:00", "meta": {"OBJECT_NAME": "COSMOS 2251 DEB", "OBJECT_ID": "1993-036FS", "EPOCH": "2025-12-09T22:25:04.022112", "MEAN_MOTION": 14.50650706, "ECCENTRICITY": 0.0021373, "INCLINATION": 74.0493, "RA_OF_ASC_NODE": 152.3152, "ARG_OF_PERICENTER": 255.5475, "MEAN_ANOMALY": 257.2704, "EPHEMERIS_TYPE": 0, "CLASSIFICATION_TYPE": "U", "NORAD_CAT_ID": 33983, "ELEMENT_SET_NO": 999, "REV_AT_EPOCH": 88588, "BSTAR": 0.00075773, "MEAN_MOTION_DOT": 2.957e-05, "MEAN_MOTION_DDOT": 0}, "tle": {"line1": "1 33983U 93036FS  25343.93407433  .00002957  00000+0  75773-3 0  9991", "line2": "2 33983  74.0493 152.3152 0021373 255.5475 257.2704 14.50650706885881"}}, "geometry": {"type": "Point", "coordinates": [-45.52350900792897, 45.31884011253572]}}, {"type": "Feature", "properties": {"norad_id": 33984, "name": "COSMOS 2251 DEB", "group": "cosmos-2251-debris", "lat": 64.08304484311594, "lon": 135.29762338834405, "alt_km": 663.2040251694707, "timestamp": "2025-12-10T11:33:53.777292+00:00", "meta": {"OBJECT_NAME": "COSMOS 2251 DEB", "OBJECT_ID": "1993-036FT", "EPOCH": "2025-12-10T03:12:08.650080", "MEAN_MOTION": 14.66325659, "ECCENTRICITY": 0.0023286, "INCLINATION": 74.0097, "RA_OF_ASC_NODE": 352.1341, "ARG_OF_PERICENTER": 190.9892, "MEAN_ANOMALY": 241.3244, "EPHEMERIS_TYPE": 0, "CLASSIFICATION_TYPE": "U", "NORAD_CAT_ID": 33984, "ELEMENT_SET_NO": 999, "REV_AT_EPOCH": 89028, "BSTAR": 0.0011607, "MEAN_MOTION_DOT": 6.407e-05, "MEAN_MOTION_DDOT": 0}, "tle": {"line1": "1 33984U 93036FT  25344.13343345  .00006407  00000+0  11607-2 0  9995", "line2": "2 33984  74.0097 352.1341 0023286 190.9892 241.3244 14.66325659890288"}}, "geometry": {"type": "Point", "coordinates": [135.29762338834405, 64.08304484311594]}}, {"type": "Feature", "properties": {"norad_id": 33986, "name": "COSMOS 2251 DEB", "group": "cosmos-2251-debris", "lat": -51.47350308646486, "lon": -74.20210418611265, "alt_km": 746.783570292313, "timestamp": "2025-12-10T11:33:53.777302+00:00", "meta": {"OBJECT_NAME": "COSMOS 2251 DEB", "OBJECT_ID": "1993-036FV", "EPOCH": "2025-12-08T23:28:28.723008", "MEAN_MOTION": 14.43172512, "ECCENTRICITY": 0.0040264, "INCLINATION": 74.037, "RA_OF_ASC_NODE": 309.6592, "ARG_OF_PERICENTER": 23.2183, "MEAN_ANOMALY": 33.2913, "EPHEMERIS_TYPE": 0, "CLASSIFICATION_TYPE": "U", "NORAD_CAT_ID": 33986, "ELEMENT_SET_NO": 999, "REV_AT_EPOCH": 87974, "BSTAR": 0.0010835, "MEAN_MOTION_DOT": 3.652e-05, "MEAN_MOTION_DDOT": 0}, "tle": {"line1": "1 33986U 93036FV  25342.97811022  .00003652  00000+0  10835-2 0  9990", "line2": "2 33986  74.0370 309.6592 0040264  23.2183  33.2913 14.43172512879747"}}, "geometry": {"type": "Point", "coordinates": [-74.20210418611265, -51.47350308646486]}}, {"type": "Feature", "properties": {"norad_id": 33990, "name": "COSMOS 2251 DEB", "group": "cosmos-2251-debris", "lat": 36.86080533361404, "lon": -57.89894738140825, "alt_km": 1048.3352972639732, "timestamp": "2025-12-10T11:33:53.777312+00:00", "meta": {"OBJECT_NAME": "COSMOS 2251 DEB", "OBJECT_ID": "1993-036FZ", "EPOCH": "2025-12-10T04:34:08.279040", "MEAN_MOTION": 13.49980205, "ECCENTRICITY": 0.0407569, "INCLINATION": 73.9289, "RA_OF_ASC_NODE": 290.0873, "ARG_OF_PERICENTER": 310.8553, "MEAN_ANOMALY": 107.0515, "EPHEMERIS_TYPE": 0, "CLASSIFICATION_TYPE": "U", "NORAD_CAT_ID": 33990, "ELEMENT_SET_NO": 999, "REV_AT_EPOCH": 82695, "BSTAR": 0.002089, "MEAN_MOTION_DOT": 2.202e-05, "MEAN_MOTION_DDOT": 0}, "tle": {"line1": "1 33990U 93036FZ  25344.19037360  .00002202  00000+0  20890-2 0  9998", "line2": "2 33990  73.9289 290.0873 0407569 310.8553 107.0515 13.49980205826959"}}, "geometry": {"type": "Point", "coordinates": [-57.89894738140825, 36.86080533361404]}}, {"type": "Feature", "properties": {"norad_id": 33992, "name": "COSMOS 2251 DEB", "group": "cosmos-2251-debris", "lat": -24.938793708960922, "lon": -25.56370387980251, "alt_km": 700.1229502258593, "timestamp": "2025-12-10T11:33:53.777322+00:00", "meta": {"OBJECT_NAME": "COSMOS 2251 DEB", "OBJECT_ID": "1993-036GB", "EPOCH": "2025-12-10T02:07:42.212064", "MEAN_MOTION": 14.66178005, "ECCENTRICITY": 0.0051628, "INCLINATION": 74.0243, "RA_OF_ASC_NODE": 342.8496, "ARG_OF_PERICENTER": 101.5643, "MEAN_ANOMALY": 318.5118, "EPHEMERIS_TYPE": 0, "CLASSIFICATION_TYPE": "U", "NORAD_CAT_ID": 33992, "ELEMENT_SET_NO": 999, "REV_AT_EPOCH": 89086, "BSTAR": 0.0010009, "MEAN_MOTION_DOT": 5.589e-05, "MEAN_MOTION_DDOT": 0}, "tle": {"line1": "1 33992U 93036GB  25344.08868301  .00005589  00000+0  10009-2 0  9997", "line2": "2 33992  74.0243 342.8496 0051628 101.5643 318.5118 14.66178005890862"}}, "geometry": {"type": "Point", "coordinates": [-25.56370387980251, -24.938793708960922]}}, {"type": "Feature", "properties": {"norad_id": 33994, "name": "COSMOS 2251 DEB", "group": "cosmos-2251-debris", "lat": 74.02860366791055, "lon": -74.17060434280431, "alt_km": 755.7174754066191, "timestamp": "2025-12-10T11:33:53.777331+00:00", "meta": {"OBJECT_NAME": "COSMOS 2251 DEB", "OBJECT_ID": "1993-036GD", "EPOCH": "2025-12-10T01:42:33.621408", "MEAN_MOTION": 14.41212087, "ECCENTRICITY": 0.0023567, "INCLINATION": 74.042, "RA_OF_ASC_NODE": 195.3479, "ARG_OF_PERICENTER": 330.1385, "MEAN_ANOMALY": 150.2307, "EPHEMERIS_TYPE": 0, "CLASSIFICATION_TYPE": "U", "NORAD_CAT_ID": 33994, "ELEMENT_SET_NO": 999, "REV_AT_EPOCH": 88381, "BSTAR": 0.0001275, "MEAN_MOTION_DOT": 3.86e-06, "MEAN_MOTION_DDOT": 0}, "tle": {"line1": "1 33994U 93036GD  25344.07122247  .00000386  00000+0  12750-3 0  9996", "line2": "2 33994  74.0420 195.3479 0023567 330.1385 150.2307 14.41212087883817"}}, "geometry": {"type": "Point", "coordinates": [-74.17060434280431, 74.02860366791055]}}, {"type": "Feature", "properties": {"norad_id": 33995, "name": "COSMOS 2251 DEB", "group": "cosmos-2251-debris", "lat": -37.501106918329576, "lon": -43.850258323936615, "alt_km": 774.654469331289, "timestamp": "2025-12-10T11:33:53.777341+00:00", "meta": {"OBJECT_NAME": "COSMOS 2251 DEB", "OBJECT_ID": "1993-036GE", "EPOCH": "2025-12-10T02:11:04.822656", "MEAN_MOTION": 14.34748583, "ECCENTRICITY": 0.0060332, "INCLINATION": 74.0615, "RA_OF_ASC_NODE": 124.1973, "ARG_OF_PERICENTER": 139.3463, "MEAN_ANOMALY": 221.2217, "EPHEMERIS_TYPE": 0, "CLASSIFICATION_TYPE": "U", "NORAD_CAT_ID": 33995, "ELEMENT_SET_NO": 999, "REV_AT_EPOCH": 87481, "BSTAR": 0.0014733, "MEAN_MOTION_DOT": 4.239e-05, "MEAN_MOTION_DDOT": 0}, "tle": {"line1": "1 33995U 93036GE  25344.09102804  .00004239  00000+0  14733-2 0  9999", "line2": "2 33995  74.0615 124.1973 0060332 139.3463 221.2217 14.34748583874816"}}, "geometry": {"type": "Point", "coordinates": [-43.850258323936615, -37.501106918329576]}}, {"type": "Feature", "properties": {"norad_id": 33999, "name": "COSMOS 2251 DEB", "group": "cosmos-2251-debris", "lat": -17.69914603899125, "lon": -130.00210330226517, "alt_km": 650.5895762100808, "timestamp": "2025-12-10T11:33:53.777351+00:00", "meta": {"OBJECT_NAME": "COSMOS 2251 DEB", "OBJECT_ID": "1993-036GJ", "EPOCH": "2025-12-10T03:33:17.468640", "MEAN_MOTION": 14.83266879, "ECCENTRICITY": 0.0044551, "INCLINATION": 73.9186, "RA_OF_ASC_NODE": 235.9453, "ARG_OF_PERICENTER": 132.3457, "MEAN_ANOMALY": 228.1508, "EPHEMERIS_TYPE": 0, "CLASSIFICATION_TYPE": "U", "NORAD_CAT_ID": 33999, "ELEMENT_SET_NO": 999, "REV_AT_EPOCH": 89212, "BSTAR": 0.0019071, "MEAN_MOTION_DOT": 0.00015876, "MEAN_MOTION_DDOT": 0}, "tle": {"line1": "1 33999U 93036GJ  25344.14811885  .00015876  00000+0  19071-2 0  9994", "line2": "2 33999  73.9186 235.9453 0044551 132.3457 228.1508 14.83266879892126"}}, "geometry": {"type": "Point", "coordinates": [-130.00210330226517, -17.69914603899125]}}]}